{"fetched_at":"2026-03-29T16:36:15Z","count":15609,"tles":[{"name":"STARLINK-30439","line1":"1 57867U 23144D   26087.62324723  .00033717  00000+0  12280-2 0  9994","line2":"2 57867  43.0034 178.2251 0002241 274.5827  85.4769 15.27610458140541","category":"Starlink"}]}